start=new Date('2023-06-08T00:00:00.000Z').valueOf();
sats=[{"EPOCH":"2023-06-07T20:32:34.060128","GP_ID":"233434429","ECCENTRICITY":"0.00009840","MEAN_ANOMALY":"267.5824","PERIAPSIS":"539.062","INCLINATION":"53.2175","REV_AT_EPOCH":"3387","BSTAR":"0.00002715000000","APOAPSIS":"540.424","MEAN_MOTION_DOT":"0.00000144","RCS_SIZE":"LARGE","FILE":"3927436","MEAN_MOTION":"15.08840742","OBJECT_ID":"2022-141L","MEAN_ELEMENT_THEORY":"SGP4","DECAY_DATE":null,"REF_FRAME":"TEME","OBJECT_TYPE":"PAYLOAD","EPHEMERIS_TYPE":"0","SITE":"AFWTR","TIME_SYSTEM":"UTC","TLE_LINE1":"1 54167U 22141L   23158.85594977  .00000144  00000-0  27150-4 0  9994","COUNTRY_CODE":"US","SEMIMAJOR_AXIS":"6917.878","TLE_LINE2":"2 54167  53.2175 209.2661 0000984  92.5281 267.5824 15.08840742 33876","MEAN_MOTION_DDOT":"0.0000000000000","CLASSIFICATION_TYPE":"U","ARG_OF_PERICENTER":"92.5281","LAUNCH_DATE":"2022-10-28","OBJECT_NAME":"STARLINK-5243","NORAD_CAT_ID":"54167","RA_OF_ASC_NODE":"209.2661","PERIOD":"95.438","ELEMENT_SET_NO":"999","CENTER_NAME":"EARTH"},{"APOAPSIS":"540.372","MEAN_MOTION_DOT":"-0.00000123","MEAN_MOTION":"15.08837462","RCS_SIZE":"LARGE","FILE":"3927436","MEAN_ELEMENT_THEORY":"SGP4","OBJECT_ID":"2022-141M","DECAY_DATE":null,"EPOCH":"2023-06-07T19:35:39.442272","ECCENTRICITY":"0.00008950","GP_ID":"233434179","MEAN_ANOMALY":"283.7008","PERIAPSIS":"539.134","INCLINATION":"53.2158","REV_AT_EPOCH":"3400","BSTAR":"0.00001033100000","RA_OF_ASC_NODE":"199.7521","ELEMENT_SET_NO":"999","PERIOD":"95.438","CENTER_NAME":"EARTH","REF_FRAME":"TEME","SITE":"AFWTR","TIME_SYSTEM":"UTC","EPHEMERIS_TYPE":"0","OBJECT_TYPE":"PAYLOAD","COUNTRY_CODE":"US","TLE_LINE1":"1 54168U 22141M   23158.81642873 -.00000123  00000-0  10331-4 0  9991","OBJECT_NAME":"STARLINK-5245","NORAD_CAT_ID":"54168","TLE_LINE2":"2 54168  53.2158 199.7521 0000895  76.4084 283.7008 15.08837462 34004","CLASSIFICATION_TYPE":"U","SEMIMAJOR_AXIS":"6917.888","MEAN_MOTION_DDOT":"0.0000000000000","LAUNCH_DATE":"2022-10-28","ARG_OF_PERICENTER":"76.4084"},{"EPOCH":"2023-06-07T19:56:45.843360","ECCENTRICITY":"0.00008120","GP_ID":"233434931","REV_AT_EPOCH":"3401","INCLINATION":"53.2154","PERIAPSIS":"539.233","MEAN_ANOMALY":"267.2014","BSTAR":"0.00022347000000","MEAN_MOTION_DOT":"0.00003269","APOAPSIS":"540.357","MEAN_MOTION":"15.08823704","RCS_SIZE":"LARGE","FILE":"3927436","MEAN_ELEMENT_THEORY":"SGP4","OBJECT_ID":"2022-141N","DECAY_DATE":null,"REF_FRAME":"TEME","TIME_SYSTEM":"UTC","SITE":"AFWTR","OBJECT_TYPE":"PAYLOAD","EPHEMERIS_TYPE":"0","COUNTRY_CODE":"US","TLE_LINE1":"1 54169U 22141N   23158.83108615  .00003269  00000-0  22347-3 0  9997","OBJECT_NAME":"STARLINK-5282","NORAD_CAT_ID":"54169","LAUNCH_DATE":"2022-10-28","ARG_OF_PERICENTER":"92.9071","SEMIMAJOR_AXIS":"6917.930","TLE_LINE2":"2 54169  53.2154 199.1455 0000812  92.9071 267.2014 15.08823704 34018","CLASSIFICATION_TYPE":"U","MEAN_MOTION_DDOT":"0.0000000000000","PERIOD":"95.439","ELEMENT_SET_NO":"999","RA_OF_ASC_NODE":"199.1455","CENTER_NAME":"EARTH"},{"APOAPSIS":"540.369","MEAN_MOTION_DOT":"0.00000332","FILE":"3927174","RCS_SIZE":"LARGE","MEAN_MOTION":"15.08840609","OBJECT_ID":"2022-141P","MEAN_ELEMENT_THEORY":"SGP4","DECAY_DATE":null,"EPOCH":"2023-06-07T11:33:25.047360","GP_ID":"233400966","ECCENTRICITY":"0.00009040","PERIAPSIS":"539.118","MEAN_ANOMALY":"278.0142","INCLINATION":"53.2151","REV_AT_EPOCH":"3395","BSTAR":"0.00003893000000","RA_OF_ASC_NODE":"201.2165","ELEMENT_SET_NO":"999","PERIOD":"95.438","CENTER_NAME":"EARTH","REF_FRAME":"TEME","OBJECT_TYPE":"PAYLOAD","EPHEMERIS_TYPE":"0","TIME_SYSTEM":"UTC","SITE":"AFWTR","TLE_LINE1":"1 54170U 22141P   23158.48153990  .00000332  00000-0  38930-4 0  9990","COUNTRY_CODE":"US","TLE_LINE2":"2 54170  53.2151 201.2165 0000904  82.0953 278.0142 15.08840609 33958","SEMIMAJOR_AXIS":"6917.879","CLASSIFICATION_TYPE":"U","MEAN_MOTION_DDOT":"0.0000000000000","LAUNCH_DATE":"2022-10-28","ARG_OF_PERICENTER":"82.0953","OBJECT_NAME":"STARLINK-5155","NORAD_CAT_ID":"54170"},{"ELEMENT_SET_NO":"999","PERIOD":"95.437","RA_OF_ASC_NODE":"204.3059","CENTER_NAME":"EARTH","TLE_LINE1":"1 54171U 22141Q   23158.86193854  .00000316  00000-0  37927-4 0  9993","COUNTRY_CODE":"US","ARG_OF_PERICENTER":"83.8586","LAUNCH_DATE":"2022-10-28","TLE_LINE2":"2 54171  53.2151 204.3059 0000897  83.8586 276.2508 15.08841107 33946","MEAN_MOTION_DDOT":"0.0000000000000","SEMIMAJOR_AXIS":"6917.877","CLASSIFICATION_TYPE":"U","NORAD_CAT_ID":"54171","OBJECT_NAME":"STARLINK-5229","REF_FRAME":"TEME","OBJECT_TYPE":"PAYLOAD","EPHEMERIS_TYPE":"0","SITE":"AFWTR","TIME_SYSTEM":"UTC","OBJECT_ID":"2022-141Q","MEAN_ELEMENT_THEORY":"SGP4","DECAY_DATE":null,"MEAN_MOTION_DOT":"0.00000316","APOAPSIS":"540.363","FILE":"3927436","RCS_SIZE":"LARGE","MEAN_MOTION":"15.08841107","REV_AT_EPOCH":"3394","MEAN_ANOMALY":"276.2508","PERIAPSIS":"539.121","INCLINATION":"53.2151","BSTAR":"0.00003792700000","EPOCH":"2023-06-07T20:41:11.489856","GP_ID":"233433930","ECCENTRICITY":"0.00008970"},{"SITE":"AFWTR","TIME_SYSTEM":"UTC","EPHEMERIS_TYPE":"0","OBJECT_TYPE":"PAYLOAD","REF_FRAME":"TEME","OBJECT_NAME":"STARLINK-5117","NORAD_CAT_ID":"54172","TLE_LINE2":"2 54172  53.2152 199.6828 0000954  86.1400 273.9702 15.08837997 34003","CLASSIFICATION_TYPE":"U","SEMIMAJOR_AXIS":"6917.887","MEAN_MOTION_DDOT":"0.0000000000000","ARG_OF_PERICENTER":"86.1400","LAUNCH_DATE":"2022-10-28","COUNTRY_CODE":"US","TLE_LINE1":"1 54172U 22141R   23158.80537247  .00000288  00000-0  36167-4 0  9999","CENTER_NAME":"EARTH","RA_OF_ASC_NODE":"199.6828","PERIOD":"95.438","ELEMENT_SET_NO":"999","ECCENTRICITY":"0.00009540","GP_ID":"233434679","EPOCH":"2023-06-07T19:19:44.181408","BSTAR":"0.00003616700000","PERIAPSIS":"539.092","INCLINATION":"53.2152","MEAN_ANOMALY":"273.9702","REV_AT_EPOCH":"3400","MEAN_MOTION":"15.08837997","FILE":"3927436","RCS_SIZE":"LARGE","APOAPSIS":"540.411","MEAN_MOTION_DOT":"0.00000288","DECAY_DATE":null,"MEAN_ELEMENT_THEORY":"SGP4","OBJECT_ID":"2022-141R"},{"MEAN_ANOMALY":"283.1016","PERIAPSIS":"538.914","INCLINATION":"53.2154","REV_AT_EPOCH":"3401","BSTAR":"0.00005013000000","EPOCH":"2023-06-07T20:02:03.872256","GP_ID":"233435431","ECCENTRICITY":"0.00012010","OBJECT_ID":"2022-141S","MEAN_ELEMENT_THEORY":"SGP4","DECAY_DATE":null,"APOAPSIS":"540.575","MEAN_MOTION_DOT":"0.00000510","FILE":"3927436","RCS_SIZE":"LARGE","MEAN_MOTION":"15.08840316","TLE_LINE1":"1 54173U 22141S   23158.83476704  .00000510  00000-0  50130-4 0  9997","COUNTRY_CODE":"US","TLE_LINE2":"2 54173  53.2154 199.1612 0001201  77.0110 283.1016 15.08840316 34016","CLASSIFICATION_TYPE":"U","SEMIMAJOR_AXIS":"6917.879","MEAN_MOTION_DDOT":"0.0000000000000","ARG_OF_PERICENTER":"77.0110","LAUNCH_DATE":"2022-10-28","OBJECT_NAME":"STARLINK-5242","NORAD_CAT_ID":"54173","REF_FRAME":"TEME","OBJECT_TYPE":"PAYLOAD","EPHEMERIS_TYPE":"0","SITE":"AFWTR","TIME_SYSTEM":"UTC","RA_OF_ASC_NODE":"199.1612","ELEMENT_SET_NO":"999","PERIOD":"95.438","CENTER_NAME":"EARTH"},{"CENTER_NAME":"EARTH","RA_OF_ASC_NODE":"146.9650","PERIOD":"95.438","ELEMENT_SET_NO":"999","TIME_SYSTEM":"UTC","SITE":"AFWTR","EPHEMERIS_TYPE":"0","OBJECT_TYPE":"PAYLOAD","REF_FRAME":"TEME","NORAD_CAT_ID":"54174","OBJECT_NAME":"STARLINK-5248","MEAN_MOTION_DDOT":"0.0000000000000","TLE_LINE2":"2 54174  53.2169 146.9650 0001001  83.0586 277.0520 15.08839707 34695","SEMIMAJOR_AXIS":"6917.881","CLASSIFICATION_TYPE":"U","LAUNCH_DATE":"2022-10-28","ARG_OF_PERICENTER":"83.0586","COUNTRY_CODE":"US","TLE_LINE1":"1 54174U 22141T   23158.24647899  .00000138  00000-0  26722-4 0  9994","MEAN_MOTION":"15.08839707","FILE":"3927174","RCS_SIZE":"LARGE","APOAPSIS":"540.439","MEAN_MOTION_DOT":"0.00000138","DECAY_DATE":null,"MEAN_ELEMENT_THEORY":"SGP4","OBJECT_ID":"2022-141T","ECCENTRICITY":"0.00010010","GP_ID":"233401466","EPOCH":"2023-06-07T05:54:55.784736","BSTAR":"0.00002672200000","MEAN_ANOMALY":"277.0520","PERIAPSIS":"539.054","INCLINATION":"53.2169","REV_AT_EPOCH":"3469"},{"RCS_SIZE":"LARGE","FILE":"3927436","MEAN_MOTION":"15.08841538","MEAN_MOTION_DOT":"-0.00000650","APOAPSIS":"540.328","DECAY_DATE":null,"OBJECT_ID":"2022-141U","MEAN_ELEMENT_THEORY":"SGP4","GP_ID":"233434430","ECCENTRICITY":"0.00008490","EPOCH":"2023-06-07T19:25:02.504064","BSTAR":"-0.00002277600000","REV_AT_EPOCH":"3400","MEAN_ANOMALY":"280.5761","PERIAPSIS":"539.153","INCLINATION":"53.2164","CENTER_NAME":"EARTH","PERIOD":"95.437","ELEMENT_SET_NO":"999","RA_OF_ASC_NODE":"199.7052","EPHEMERIS_TYPE":"0","OBJECT_TYPE":"PAYLOAD","SITE":"AFWTR","TIME_SYSTEM":"UTC","REF_FRAME":"TEME","ARG_OF_PERICENTER":"79.5326","LAUNCH_DATE":"2022-10-28","CLASSIFICATION_TYPE":"U","TLE_LINE2":"2 54175  53.2164 199.7052 0000849  79.5326 280.5761 15.08841538 34000","SEMIMAJOR_AXIS":"6917.876","MEAN_MOTION_DDOT":"0.0000000000000","NORAD_CAT_ID":"54175","OBJECT_NAME":"STARLINK-5256","TLE_LINE1":"1 54175U 22141U   23158.80905676 -.00000650  00000-0 -22776-4 0  9993","COUNTRY_CODE":"US"},{"EPOCH":"2023-06-07T12:42:16.289280","ECCENTRICITY":"0.00010950","GP_ID":"233402468","PERIAPSIS":"538.976","MEAN_ANOMALY":"273.6124","INCLINATION":"53.2145","REV_AT_EPOCH":"3396","BSTAR":"0.00003083100000","APOAPSIS":"540.491","MEAN_MOTION_DOT":"0.00000203","MEAN_MOTION":"15.08843846","FILE":"3927174","RCS_SIZE":"LARGE","MEAN_ELEMENT_THEORY":"SGP4","OBJECT_ID":"2022-141V","DECAY_DATE":null,"REF_FRAME":"TEME","TIME_SYSTEM":"UTC","SITE":"AFWTR","OBJECT_TYPE":"PAYLOAD","EPHEMERIS_TYPE":"0","COUNTRY_CODE":"US","TLE_LINE1":"1 54176U 22141V   23158.52935520  .00000203  00000-0  30831-4 0  9997","NORAD_CAT_ID":"54176","OBJECT_NAME":"STARLINK-5154","MEAN_MOTION_DDOT":"0.0000000000000","TLE_LINE2":"2 54176  53.2145 200.8030 0001095  86.4994 273.6124 15.08843846 33966","SEMIMAJOR_AXIS":"6917.869","CLASSIFICATION_TYPE":"U","ARG_OF_PERICENTER":"86.4994","LAUNCH_DATE":"2022-10-28","RA_OF_ASC_NODE":"200.8030","ELEMENT_SET_NO":"999","PERIOD":"95.437","CENTER_NAME":"EARTH"}];
